COSMOS 1953             
1 19210U 88050A   26062.34074735  .00010207  00000+0  36736-3 0  9990
2 19210  82.5118 164.6303 0012182 143.2224 216.9854 15.28384705 36811
SL-8 R/B                
1 19257U 88053B   26062.47662976  .00000326  00000+0  11426-3 0  9998
2 19257  74.0469 123.9190 0021284 304.1293 157.6320 14.38911370975709
COSMOS 1975             
1 19573U 88093A   26062.30713237  .00009437  00000+0  34417-3 0  9999
2 19573  82.5199 124.0918 0011539 185.4329 174.6787 15.27952551 18435
SL-14 R/B               
1 19574U 88093B   26062.47691126  .00000752  00000+0  83655-4 0  9990
2 19574  82.5293  47.8765 0022117  60.9018  59.3481 14.85647444    97
SL-16 R/B               
1 19650U 88102B   26062.47714247 -.00000036  00000+0  61011-5 0  9995
2 19650  71.0000 164.5679 0013562  11.0719 349.0700 14.16149386926019
INTERCOSMOS 24          
1 20261U 89080A   26062.20995464  .00000825  00000+0  24512-3 0  9992
2 20261  82.6032 108.6239 1186835 307.8750  42.0620 12.59546135665984
SL-14 R/B               
1 20262U 89080C   26062.39428885  .00000788  00000+0  23453-3 0  9992
2 20262  82.5971 177.2263 1230327 199.1354 155.9376 12.50484175659366
DELTA 1 R/B             
1 20323U 89089B   26062.48194882  .00000467  00000+0  12378-3 0  9994
2 20323  97.0709 270.9079 0070088 141.3074 219.3175 14.50657195894834
ARIANE 40 R/B           
1 20443U 90005H   26062.14237346  .00000314  00000+0  11330-3 0  9991
2 20443  98.3098 122.9986 0009457 218.9754 141.0754 14.39865183891862
DELTA 2 R/B(1)          
1 20453U 90008B   26062.46996396  .00075249  00000+0  90847-3 0  9996
2 20453  35.6035 215.6444 0086795 201.1503 158.5633 15.55009119925161
COSMOS 2058             
1 20465U 90010A   26062.49056575  .00005186  00000+0  30648-3 0  9997
2 20465  82.4666  53.5350 0009826   3.7940 356.3363 15.11253022941308
SL-14 R/B               
1 20466U 90010B   26062.00967480  .00000471  00000+0  54157-4 0  9995
2 20466  82.4992 273.6651 0018962 325.6443  34.3545 14.83561935927497
SL-14 R/B               
1 20511U 90018B   26062.49367082  .00000677  00000+0  81897-4 0  9998
2 20511  82.5192 228.8814 0017592 110.8501 249.4599 14.82136778921664
HST                     
1 20580U 90037B   26062.41753729  .00009009  00000+0  29940-3 0  9992
2 20580  28.4702  82.7831 0001695  63.3001 296.7768 15.29363841772354
SL-16 R/B               
1 20625U 90046B   26062.12285701 -.00000172  00000+0 -64098-4 0  9998
2 20625  71.0003 311.7062 0016124 308.4467  51.5208 14.15014698847463
COSMOS 2084             
1 20663U 90055A   26062.21324534  .00003603  00000+0  26164-3 0  9999
2 20663  62.7926 357.6650 0018109 188.5844 171.4949 15.05602026935346
SL-6 R/B(2)             
1 20666U 90055D   26061.98752603  .00002348  00000+0  18473-3 0  9996
2 20666  62.7820 276.6432 0023719 345.3800  14.6610 15.03555926937189
